[{"OBJECT_NAME":"STARLINK-35265","OBJECT_ID":"2025-216Q","EPOCH":"2026-03-09T21:23:59.258112","MEAN_MOTION":15.30218001,"ECCENTRICITY":0.00010851,"INCLINATION":53.1584,"RA_OF_ASC_NODE":332.0166,"ARG_OF_PERICENTER":102.2961,"MEAN_ANOMALY":257.8161,"EPHEMERIS_TYPE":0,"CLASSIFICATION_TYPE":"U","NORAD_CAT_ID":65748,"ELEMENT_SET_NO":999,"REV_AT_EPOCH":2549,"BSTAR":0.0010071541,"MEAN_MOTION_DOT":0.00029605,"MEAN_MOTION_DDOT":0},{"OBJECT_NAME":"COSMOS 1220 DEB","OBJECT_ID":"1980-089CJ","EPOCH":"2026-03-09T07:43:28.093152","MEAN_MOTION":15.40496181,"ECCENTRICITY":0.00585687,"INCLINATION":64.9701,"RA_OF_ASC_NODE":55.6717,"ARG_OF_PERICENTER":278.4574,"MEAN_ANOMALY":80.9929,"EPHEMERIS_TYPE":0,"CLASSIFICATION_TYPE":"U","NORAD_CAT_ID":25795,"ELEMENT_SET_NO":999,"REV_AT_EPOCH":55668,"BSTAR":0.00051020882,"MEAN_MOTION_DOT":0.00021921,"MEAN_MOTION_DDOT":0}]
